{
  "type": "FeatureCollection",
  "features": [
    {
      "type": "Feature",
      "properties": {
        "norad_id": 34492,
        "name": "IRIDIUM 33 DEB",
        "group": "iridium-33-debris",
        "lat": 51.243935511520945,
        "lon": 153.15525148814302,
        "alt_km": 894.3925857103632,
        "timestamp": "2025-12-05T11:32:56.402502+00:00",
        "meta_object_name": "IRIDIUM 33 DEB",
        "meta_object_id": "1997-051GH",
        "meta_epoch": "2025-12-04T06:22:25.668768",
        "meta_mean_motion": 14.2534836,
        "meta_eccentricity": 0.0190073,
        "meta_inclination": 86.4709,
        "meta_ra_of_asc_node": 338.0551,
        "meta_arg_of_pericenter": 265.7011,
        "meta_mean_anomaly": 110.4059,
        "meta_ephemeris_type": 0,
        "meta_classification_type": "U",
        "meta_norad_cat_id": 34492,
        "meta_element_set_no": 999,
        "meta_rev_at_epoch": 84938,
        "meta_bstar": 0.015697,
        "meta_mean_motion_dot": 0.00044922,
        "meta_mean_motion_ddot": 0,
        "tle_line1": "1 34492U 97051GH  25338.26557487  .00044922  00000+0  15697-1 0  9998",
        "tle_line2": "2 34492  86.4709 338.0551 0190073 265.7011 110.4059 14.25348360849383"
      },
      "geometry": {
        "type": "Point",
        "coordinates": [
          153.15525148814302,
          51.243935511520945
        ]
      }
    },
    {
      "type": "Feature",
      "properties": {
        "norad_id": 34497,
        "name": "IRIDIUM 33 DEB",
        "group": "iridium-33-debris",
        "lat": -40.75618750581685,
        "lon": 52.28714605595328,
        "alt_km": 765.6569097161391,
        "timestamp": "2025-12-05T11:32:56.402512+00:00",
        "meta_object_name": "IRIDIUM 33 DEB",
        "meta_object_id": "1997-051GN",
        "meta_epoch": "2025-12-04T12:14:50.225856",
        "meta_mean_motion": 14.27417883,
        "meta_eccentricity": 0.0079675,
        "meta_inclination": 86.2786,
        "meta_ra_of_asc_node": 55.9172,
        "meta_arg_of_pericenter": 6.4341,
        "meta_mean_anomaly": 7.361,
        "meta_ephemeris_type": 0,
        "meta_classification_type": "U",
        "meta_norad_cat_id": 34497,
        "meta_element_set_no": 999,
        "meta_rev_at_epoch": 86766,
        "meta_bstar": 0.0011124,
        "meta_mean_motion_dot": 2.839e-05,
        "meta_mean_motion_ddot": 0,
        "tle_line1": "1 34497U 97051GN  25338.51030354  .00002839  00000+0  11124-2 0  9993",
        "tle_line2": "2 34497  86.2786  55.9172 0079675   6.4341   7.3610 14.27417883867662"
      },
      "geometry": {
        "type": "Point",
        "coordinates": [
          52.28714605595328,
          -40.75618750581685
        ]
      }
    },
    {
      "type": "Feature",
      "properties": {
        "norad_id": 34508,
        "name": "IRIDIUM 33 DEB",
        "group": "iridium-33-debris",
        "lat": -12.52868933259312,
        "lon": -73.47219383957918,
        "alt_km": 721.8639292428343,
        "timestamp": "2025-12-05T11:32:56.402522+00:00",
        "meta_object_name": "IRIDIUM 33 DEB",
        "meta_object_id": "1997-051GZ",
        "meta_epoch": "2025-12-04T14:37:10.254144",
        "meta_mean_motion": 14.38305208,
        "meta_eccentricity": 0.0065555,
        "meta_inclination": 86.3701,
        "meta_ra_of_asc_node": 106.0892,
        "meta_arg_of_pericenter": 199.4051,
        "meta_mean_anomaly": 160.4651,
        "meta_ephemeris_type": 0,
        "meta_classification_type": "U",
        "meta_norad_cat_id": 34508,
        "meta_element_set_no": 999,
        "meta_rev_at_epoch": 87192,
        "meta_bstar": 0.0039355,
        "meta_mean_motion_dot": 0.00012307,
        "meta_mean_motion_ddot": 0,
        "tle_line1": "1 34508U 97051GZ  25338.60914646  .00012307  00000+0  39355-2 0  9998",
        "tle_line2": "2 34508  86.3701 106.0892 0065555 199.4051 160.4651 14.38305208871922"
      },
      "geometry": {
        "type": "Point",
        "coordinates": [
          -73.47219383957918,
          -12.52868933259312
        ]
      }
    },
    {
      "type": "Feature",
      "properties": {
        "norad_id": 34521,
        "name": "IRIDIUM 33 DEB",
        "group": "iridium-33-debris",
        "lat": 78.8808418852495,
        "lon": 52.52943108072045,
        "alt_km": 676.1193574979634,
        "timestamp": "2025-12-05T11:32:56.402532+00:00",
        "meta_object_name": "IRIDIUM 33 DEB",
        "meta_object_id": "1997-051HN",
        "meta_epoch": "2025-12-04T15:29:32.133120",
        "meta_mean_motion": 14.63253587,
        "meta_eccentricity": 0.0001112,
        "meta_inclination": 86.3809,
        "meta_ra_of_asc_node": 34.1114,
        "meta_arg_of_pericenter": 282.2127,
        "meta_mean_anomaly": 77.896,
        "meta_ephemeris_type": 0,
        "meta_classification_type": "U",
        "meta_norad_cat_id": 34521,
        "meta_element_set_no": 999,
        "meta_rev_at_epoch": 88354,
        "meta_bstar": 0.0022511,
        "meta_mean_motion_dot": 0.00011629,
        "meta_mean_motion_ddot": 0,
        "tle_line1": "1 34521U 97051HN  25338.64551080  .00011629  00000+0  22511-2 0  9998",
        "tle_line2": "2 34521  86.3809  34.1114 0001112 282.2127  77.8960 14.63253587883543"
      },
      "geometry": {
        "type": "Point",
        "coordinates": [
          52.52943108072045,
          78.8808418852495
        ]
      }
    },
    {
      "type": "Feature",
      "properties": {
        "norad_id": 34525,
        "name": "IRIDIUM 33 DEB",
        "group": "iridium-33-debris",
        "lat": 71.0398838031802,
        "lon": 60.57961067054238,
        "alt_km": 738.6559607060472,
        "timestamp": "2025-12-05T11:32:56.402543+00:00",
        "meta_object_name": "IRIDIUM 33 DEB",
        "meta_object_id": "1997-051HS",
        "meta_epoch": "2025-12-04T15:56:56.567904",
        "meta_mean_motion": 14.42875001,
        "meta_eccentricity": 0.0006483,
        "meta_inclination": 86.3735,
        "meta_ra_of_asc_node": 50.29,
        "meta_arg_of_pericenter": 113.478,
        "meta_mean_anomaly": 38.6351,
        "meta_ephemeris_type": 0,
        "meta_classification_type": "U",
        "meta_norad_cat_id": 34525,
        "meta_element_set_no": 999,
        "meta_rev_at_epoch": 87971,
        "meta_bstar": 0.0007208,
        "meta_mean_motion_dot": 2.426e-05,
        "meta_mean_motion_ddot": 0,
        "tle_line1": "1 34525U 97051HS  25338.66454361  .00002426  00000+0  72080-3 0  9990",
        "tle_line2": "2 34525  86.3735  50.2900 0006483 113.4780  38.6351 14.42875001879714"
      },
      "geometry": {
        "type": "Point",
        "coordinates": [
          60.57961067054238,
          71.0398838031802
        ]
      }
    },
    {
      "type": "Feature",
      "properties": {
        "norad_id": 34529,
        "name": "IRIDIUM 33 DEB",
        "group": "iridium-33-debris",
        "lat": 25.592697528303955,
        "lon": 40.25069459445161,
        "alt_km": 758.4513458081074,
        "timestamp": "2025-12-05T11:32:56.402553+00:00",
        "meta_object_name": "IRIDIUM 33 DEB",
        "meta_object_id": "1997-051HW",
        "meta_epoch": "2025-12-04T10:25:29.464320",
        "meta_mean_motion": 14.40606025,
        "meta_eccentricity": 0.0003797,
        "meta_inclination": 86.3647,
        "meta_ra_of_asc_node": 38.9518,
        "meta_arg_of_pericenter": 206.5624,
        "meta_mean_anomaly": 153.5381,
        "meta_ephemeris_type": 0,
        "meta_classification_type": "U",
        "meta_norad_cat_id": 34529,
        "meta_element_set_no": 999,
        "meta_rev_at_epoch": 88022,
        "meta_bstar": 0.0002444,
        "meta_mean_motion_dot": 7.98e-06,
        "meta_mean_motion_ddot": 0,
        "tle_line1": "1 34529U 97051HW  25338.43436880  .00000798  00000+0  24440-3 0  9992",
        "tle_line2": "2 34529  86.3647  38.9518 0003797 206.5624 153.5381 14.40606025880228"
      },
      "geometry": {
        "type": "Point",
        "coordinates": [
          40.25069459445161,
          25.592697528303955
        ]
      }
    },
    {
      "type": "Feature",
      "properties": {
        "norad_id": 34538,
        "name": "IRIDIUM 33 DEB",
        "group": "iridium-33-debris",
        "lat": 9.304198002641257,
        "lon": -171.8750437971413,
        "alt_km": 775.8532236446426,
        "timestamp": "2025-12-05T11:32:56.402563+00:00",
        "meta_object_name": "IRIDIUM 33 DEB",
        "meta_object_id": "1997-051JF",
        "meta_epoch": "2025-12-04T07:02:51.253728",
        "meta_mean_motion": 14.42571124,
        "meta_eccentricity": 0.0033852,
        "meta_inclination": 86.278,
        "meta_ra_of_asc_node": 9.2557,
        "meta_arg_of_pericenter": 356.4669,
        "meta_mean_anomaly": 130.6671,
        "meta_ephemeris_type": 0,
        "meta_classification_type": "U",
        "meta_norad_cat_id": 34538,
        "meta_element_set_no": 999,
        "meta_rev_at_epoch": 87634,
        "meta_bstar": 0.00201,
        "meta_mean_motion_dot": 6.735e-05,
        "meta_mean_motion_ddot": 0,
        "tle_line1": "1 34538U 97051JF  25338.29364877  .00006735  00000+0  20100-2 0  9997",
        "tle_line2": "2 34538  86.2780   9.2557 0033852 356.4669 130.6671 14.42571124876347"
      },
      "geometry": {
        "type": "Point",
        "coordinates": [
          -171.8750437971413,
          9.304198002641257
        ]
      }
    }
  ]
}